{
  "norad_id": 67713,
  "name": "STARLINK-36708",
  "history": [
    {
      "epoch": "2026-03-28T20:23:14.508672Z",
      "apogee_km": 466.619256087698,
      "perigee_km": 464.37563897041946,
      "latitude_deg": 1.2746738774371717e-05,
      "longitude_deg": 67.34763040476165,
      "height_km": 468.88185086857675,
      "semi_major_axis_km": 6843.634447529058,
      "eccentricity": 0.00016392,
      "inclination_deg": 97.2845,
      "raan_deg": 199.4221,
      "arg_perigee_deg": 104.1818,
      "mean_anomaly_deg": 255.9607,
      "mean_motion_rev_day": 15.33460369
    },
    {
      "epoch": "2026-03-29T01:05:08.837952Z",
      "apogee_km": 466.6319084157276,
      "perigee_km": 464.4460383098358,
      "latitude_deg": -2.148736341412128e-05,
      "longitude_deg": -3.129494729001395,
      "height_km": 468.8618676948232,
      "semi_major_axis_km": 6843.675973362781,
      "eccentricity": 0.0001597,
      "inclination_deg": 97.2849,
      "raan_deg": 199.6143,
      "arg_perigee_deg": 101.256,
      "mean_anomaly_deg": 258.8862,
      "mean_motion_rev_day": 15.33446412
    }
  ]
}